FLOCK 4G-21             
1 62651U 25009AU  26068.19487675  .00013648  00000+0  49619-3 0  9998
2 62651  97.4032 151.1274 0000465 329.5782  30.5431 15.28381075 63677
STARLINK-35118          
1 66858U 25281L   26067.18085412  .00039094  00000+0  14204-2 0  9998
2 66858  43.0039 352.0942 0001601 279.6952  80.3719 15.27631687 15951
